[
    {
        "Altitude(m)": 605470.7945512803,
        "Argument of Periapsis(deg)": 0.0,
        "Eccentricity": 0.0,
        "Inclination(deg)": 60.0,
        "Latitude(deg)": 27.988220930611515,
        "Longitude(deg)": 127.26296953405463,
        "Mean Anomaly(deg)": 147.2727,
        "RAAN(deg)": 65.0,
        "Satellite Name": "Test1 295",
        "Satellite Number": 295,
        "Semi-Major Axis(m)": 6980739.136638005,
        "Time(s)": 0
    },
    {
        "Altitude(m)": 605395.8322984729,
        "Argument of Periapsis(deg)": 0.00010418945913296404,
        "Eccentricity": 0.0,
        "Inclination(deg)": 60.0,
        "Latitude(deg)": 27.47391136485695,
        "Longitude(deg)": 127.61615687407465,
        "Mean Anomaly(deg)": 147.8928061454618,
        "RAAN(deg)": 64.99957995086025,
        "Satellite Name": "Test1 295",
        "Satellite Number": 295,
        "Semi-Major Axis(m)": 6980739.136638005,
        "Time(s)": 10
    },
    {
        "Altitude(m)": 605322.6727056114,
        "Argument of Periapsis(deg)": 0.0002083789182659281,
        "Eccentricity": 0.0,
        "Inclination(deg)": 60.0,
        "Latitude(deg)": 26.958456005738512,
        "Longitude(deg)": 127.96569600630755,
        "Mean Anomaly(deg)": 148.51291229092362,
        "RAAN(deg)": 64.99915990172052,
        "Satellite Name": "Test1 295",
        "Satellite Number": 295,
        "Semi-Major Axis(m)": 6980739.136638005,
        "Time(s)": 20
    },
    {
        "Altitude(m)": 605251.3714472667,
        "Argument of Periapsis(deg)": 0.00031256837739889213,
        "Eccentricity": 0.0,
        "Inclination(deg)": 60.0,
        "Latitude(deg)": 26.44188935559342,
        "Longitude(deg)": 128.31169158069906,
        "Mean Anomaly(deg)": 149.1330184363855,
        "RAAN(deg)": 64.99873985258077,
        "Satellite Name": "Test1 295",
        "Satellite Number": 295,
        "Semi-Major Axis(m)": 6980739.136638005,
        "Time(s)": 30
    },
    {
        "Altitude(m)": 605181.9834700816,
        "Argument of Periapsis(deg)": 0.0004167578365318562,
        "Eccentricity": 0.0,
        "Inclination(deg)": 60.0,
        "Latitude(deg)": 25.924245062463324,
        "Longitude(deg)": 128.65424651470445,
        "Mean Anomaly(deg)": 149.75312458184732,
        "RAAN(deg)": 64.99831980344103,
        "Satellite Name": "Test1 295",
        "Satellite Number": 295,
        "Semi-Major Axis(m)": 6980739.136638005,
        "Time(s)": 40
    },
    {
        "Altitude(m)": 605114.5629638119,
        "Argument of Periapsis(deg)": 0.0005209472956648203,
        "Eccentricity": 0.0,
        "Inclination(deg)": 60.0,
        "Latitude(deg)": 25.405555952649433,
        "Longitude(deg)": 128.99346104941148,
        "Mean Anomaly(deg)": 150.37323072730916,
        "RAAN(deg)": 64.9978997543013,
        "Satellite Name": "Test1 295",
        "Satellite Number": 295,
        "Semi-Major Axis(m)": 6980739.136638005,
        "Time(s)": 50
    },
    {
        "Altitude(m)": 605049.1633327071,
        "Argument of Periapsis(deg)": 0.0006251367547977843,
        "Eccentricity": 0.0,
        "Inclination(deg)": 60.0,
        "Latitude(deg)": 24.8858540621498,
        "Longitude(deg)": 129.3294333177384,
        "Mean Anomaly(deg)": 150.99333687277098,
        "RAAN(deg)": 64.99747970516155,
        "Satellite Name": "Test1 295",
        "Satellite Number": 295,
        "Semi-Major Axis(m)": 6980739.136638005,
        "Time(s)": 60
    },
    {
        "Altitude(m)": 604985.8371672331,
        "Argument of Periapsis(deg)": 0.0007293262139307483,
        "Eccentricity": 0.0,
        "Inclination(deg)": 60.0,
        "Latitude(deg)": 24.365170667019544,
        "Longitude(deg)": 129.66225991177527,
        "Mean Anomaly(deg)": 151.6134430182328,
        "RAAN(deg)": 64.99705965602182,
        "Satellite Name": "Test1 295",
        "Satellite Number": 295,
        "Semi-Major Axis(m)": 6980739.136638005,
        "Time(s)": 70
    },
    {
        "Altitude(m)": 604924.6362161533,
        "Argument of Periapsis(deg)": 0.0008335156730637124,
        "Eccentricity": 0.0,
        "Inclination(deg)": 60.0,
        "Latitude(deg)": 23.843536312692923,
        "Longitude(deg)": 129.99203493634573,
        "Mean Anomaly(deg)": 152.23354916369462,
        "RAAN(deg)": 64.99663960688207,
        "Satellite Name": "Test1 295",
        "Satellite Number": 295,
        "Semi-Major Axis(m)": 6980739.136638005,
        "Time(s)": 80
    },
    {
        "Altitude(m)": 604865.6113589769,
        "Argument of Periapsis(deg)": 0.0009377051321966765,
        "Eccentricity": 0.0,
        "Inclination(deg)": 60.0,
        "Latitude(deg)": 23.320980842303147,
        "Longitude(deg)": 130.31885057449747,
        "Mean Anomaly(deg)": 152.85365530915647,
        "RAAN(deg)": 64.99621955774234,
        "Satellite Name": "Test1 295",
        "Satellite Number": 295,
        "Semi-Major Axis(m)": 6980739.136638005,
        "Time(s)": 90
    },
    {
        "Altitude(m)": 604808.8125788041,
        "Argument of Periapsis(deg)": 0.0010418945913296407,
        "Eccentricity": 0.0,
        "Inclination(deg)": 60.0,
        "Latitude(deg)": 22.797533424036413,
        "Longitude(deg)": 130.64279765201775,
        "Mean Anomaly(deg)": 153.47376145461826,
        "RAAN(deg)": 64.99579950860257,
        "Satellite Name": "Test1 295",
        "Satellite Number": 295,
        "Semi-Major Axis(m)": 6980739.136638005,
        "Time(s)": 100
    },
    {
        "Altitude(m)": 604754.2889355407,
        "Argument of Periapsis(deg)": 0.0011460840504626045,
        "Eccentricity": 0.0,
        "Inclination(deg)": 60.0,
        "Latitude(deg)": 22.27322257755887,
        "Longitude(deg)": 130.96396468807305,
        "Mean Anomaly(deg)": 154.09386760008013,
        "RAAN(deg)": 64.99537945946282,
        "Satellite Name": "Test1 295",
        "Satellite Number": 295,
        "Semi-Major Axis(m)": 6980739.136638005,
        "Time(s)": 110
    },
    {
        "Altitude(m)": 604702.0885395707,
        "Argument of Periapsis(deg)": 0.0012502735095955685,
        "Eccentricity": 0.0,
        "Inclination(deg)": 60.0,
        "Latitude(deg)": 21.748076199548212,
        "Longitude(deg)": 131.28243845770652,
        "Mean Anomaly(deg)": 154.71397374554198,
        "RAAN(deg)": 64.99495941032309,
        "Satellite Name": "Test1 295",
        "Satellite Number": 295,
        "Semi-Major Axis(m)": 6980739.136638005,
        "Time(s)": 120
    },
    {
        "Altitude(m)": 604652.2585258285,
        "Argument of Periapsis(deg)": 0.0013544629687285324,
        "Eccentricity": 0.0,
        "Inclination(deg)": 60.0,
        "Latitude(deg)": 21.222121588364846,
        "Longitude(deg)": 131.59830455330496,
        "Mean Anomaly(deg)": 155.33407989100377,
        "RAAN(deg)": 64.99453936118334,
        "Satellite Name": "Test1 295",
        "Satellite Number": 295,
        "Semi-Major Axis(m)": 6980739.136638005,
        "Time(s)": 130
    },
    {
        "Altitude(m)": 604604.845028315,
        "Argument of Periapsis(deg)": 0.0014586524278614966,
        "Eccentricity": 0.0,
        "Inclination(deg)": 60.0,
        "Latitude(deg)": 20.695385467898884,
        "Longitude(deg)": 131.91164643215635,
        "Mean Anomaly(deg)": 155.95418603646564,
        "RAAN(deg)": 64.99411931204361,
        "Satellite Name": "Test1 295",
        "Satellite Number": 295,
        "Semi-Major Axis(m)": 6980739.136638005,
        "Time(s)": 140
    },
    {
        "Altitude(m)": 604559.8931550931,
        "Argument of Periapsis(deg)": 0.0015628418869944607,
        "Eccentricity": 0.0,
        "Inclination(deg)": 60.0,
        "Latitude(deg)": 20.167894010621158,
        "Longitude(deg)": 132.22254597584364,
        "Mean Anomaly(deg)": 156.57429218192746,
        "RAAN(deg)": 64.99369926290386,
        "Satellite Name": "Test1 295",
        "Satellite Number": 295,
        "Semi-Major Axis(m)": 6980739.136638005,
        "Time(s)": 150
    },
    {
        "Altitude(m)": 604517.4469637232,
        "Argument of Periapsis(deg)": 0.0016670313461274247,
        "Eccentricity": 0.0,
        "Inclination(deg)": 60.0,
        "Latitude(deg)": 19.639672859871936,
        "Longitude(deg)": 132.53108404860356,
        "Mean Anomaly(deg)": 157.19439832738928,
        "RAAN(deg)": 64.99327921376413,
        "Satellite Name": "Test1 295",
        "Satellite Number": 295,
        "Semi-Major Axis(m)": 6980739.136638005,
        "Time(s)": 160
    },
    {
        "Altitude(m)": 604477.5494371994,
        "Argument of Periapsis(deg)": 0.0017712208052603888,
        "Eccentricity": 0.0,
        "Inclination(deg)": 60.0,
        "Latitude(deg)": 19.11074715141987,
        "Longitude(deg)": 132.83733954178194,
        "Mean Anomaly(deg)": 157.8145044728511,
        "RAAN(deg)": 64.99285916462438,
        "Satellite Name": "Test1 295",
        "Satellite Number": 295,
        "Semi-Major Axis(m)": 6980739.136638005,
        "Time(s)": 170
    },
    {
        "Altitude(m)": 604440.2424603819,
        "Argument of Periapsis(deg)": 0.001875410264393353,
        "Eccentricity": 0.0,
        "Inclination(deg)": 60.0,
        "Latitude(deg)": 18.581141534317258,
        "Longitude(deg)": 133.14138993014345,
        "Mean Anomaly(deg)": 158.43461061831295,
        "RAAN(deg)": 64.99243911548463,
        "Satellite Name": "Test1 295",
        "Satellite Number": 295,
        "Semi-Major Axis(m)": 6980739.136638005,
        "Time(s)": 180
    },
    {
        "Altitude(m)": 604405.5667969445,
        "Argument of Periapsis(deg)": 0.0019795997235263173,
        "Eccentricity": 0.0,
        "Inclination(deg)": 60.0,
        "Latitude(deg)": 18.050880191082875,
        "Longitude(deg)": 133.4433118271748,
        "Mean Anomaly(deg)": 159.05471676377476,
        "RAAN(deg)": 64.9920190663449,
        "Satellite Name": "Test1 295",
        "Satellite Number": 295,
        "Semi-Major Axis(m)": 6980739.136638005,
        "Time(s)": 190
    }
]